NORAD_CAT_ID,OBJECT_NAME,OBJECT_TYPE,EPOCH,MEAN_MOTION,ECCENTRICITY,INCLINATION,RA_OF_ASC_NODE,ARG_OF_PERICENTER,MEAN_ANOMALY,BSTAR,MEAN_MOTION_DOT,MEAN_MOTION_DDOT,TLE_LINE0,TLE_LINE1,TLE_LINE2,SEMIMAJOR_AXIS,PERIOD,APOGEE,PERIGEE,DECAYED
53534.0,STARLINK-4488,PAYLOAD,2023-11-15 06:38:11,15.10486449,0.0001718,53.2184,269.0926,104.3423,255.7761,0.000117,1.656e-05,0.0,0 STARLINK-4488,1 53534U 22101H   23319.27651984  .00001656  00000-0  11700-3 0  9996,2 53534  53.2184 269.0926 0001718 104.3423 255.7761 15.10486449 68541,6912.852,95.334,535.905,533.53,0.0
53534.0,STARLINK-4488,PAYLOAD,2023-11-16 00:06:17,15.10477125,0.0001992,53.2182,265.8176,110.2639,249.8568,5.0289e-05,5.44e-06,0.0,0 STARLINK-4488,1 53534U 22101H   23320.00437047  .00000544  00000-0  50289-4 0  9992,2 53534  53.2182 265.8176 0001992 110.2639 249.8568 15.10477125 68651,6912.881,95.334,536.123,533.369,0.0
53534.0,STARLINK-4488,PAYLOAD,2023-11-16 03:16:51,15.10479903,0.0001667,53.2194,265.2215,102.0568,258.0612,0.00011904,1.69e-05,0.0,0 STARLINK-4488,1 53534U 22101H   23320.13670900  .00001690  00000-0  11904-3 0  9996,2 53534  53.2194 265.2215 0001667 102.0568 258.0612 15.10479903 68671,6912.872,95.334,535.89,533.585,0.0
53534.0,STARLINK-4488,PAYLOAD,2023-11-17 03:06:05,15.10483328,0.0001565,53.2186,260.7632,104.9815,255.1352,8.4804e-05,1.12e-05,0.0,0 STARLINK-4488,1 53534U 22101H   23321.12922964  .00001120  00000-0  84804-4 0  9994,2 53534  53.2186 260.7632 0001565 104.9815 255.1352 15.10483328 68820,6912.862,95.334,535.809,533.645,0.0
53534.0,STARLINK-4488,PAYLOAD,2023-11-17 12:37:46,15.10482778,0.0001318,53.2175,258.9736,95.314,264.8003,5.7987e-05,6.73e-06,0.0,0 STARLINK-4488,1 53534U 22101H   23321.52623666  .00000673  00000-0  57987-4 0  9999,2 53534  53.2175 258.9736 0001318  95.3140 264.8003 15.10482778 68886,6912.864,95.334,535.64,533.818,0.0
53534.0,STARLINK-4488,PAYLOAD,2023-11-17 20:34:12,15.10475076,0.0001814,53.2194,257.4858,101.9882,258.1314,4.1658e-05,4.01e-06,0.0,0 STARLINK-4488,1 53534U 22101H   23321.85708395  .00000401  00000-0  41658-4 0  9995,2 53534  53.2194 257.4858 0001814 101.9882 258.1314 15.10475076 68934,6912.887,95.334,536.006,533.498,0.0
53534.0,STARLINK-4488,PAYLOAD,2023-11-18 02:55:27,15.10327792,0.0002542,53.2181,256.2939,40.6841,319.4342,-0.0019274,-0.00032107,0.0,0 STARLINK-4488,1 53534U 22101H   23322.12184158 -.00032107  00000-0 -19274-2 0  9998,2 53534  53.2181 256.2939 0002542  40.6841 319.4342 15.10327792 68977,6913.337,95.344,536.959,533.444,0.0
53534.0,STARLINK-4488,PAYLOAD,2023-11-18 12:27:26,15.10187549,0.0001584,53.2187,254.5105,79.1257,280.9914,-0.0020789,-0.00034462,0.0,0 STARLINK-4488,1 53534U 22101H   23322.51905943 -.00034462  00000-0 -20789-2 0  9993,2 53534  53.2187 254.5105 0001584  79.1257 280.9914 15.10187549 69031,6913.765,95.352,536.725,534.534,0.0
53534.0,STARLINK-4488,PAYLOAD,2023-11-19 02:45:44,15.09740785,0.000183,53.2184,251.8314,53.637,306.4792,-0.005348,-0.00086491,0.0,0 STARLINK-4488,1 53534U 22101H   23323.11510220 -.00086491  00000-0 -53480-2 0  9993,2 53534  53.2184 251.8314 0001830  53.6370 306.4792 15.09740785 69120,6915.128,95.381,538.259,535.728,0.0
53534.0,STARLINK-4488,PAYLOAD,2023-11-19 09:07:12,15.0959098,0.0001297,53.2188,250.6464,120.8407,239.2713,-0.0062085,-0.00099761,0.0,0 STARLINK-4488,1 53534U 22101H   23323.38000594 -.00099761  00000-0 -62085-2 0  9995,2 53534  53.2188 250.6464 0001297 120.8407 239.2713 15.09590980 69162,6915.586,95.39,538.348,536.554,0.0
53534.0,STARLINK-4488,PAYLOAD,2023-11-19 22:00:00,15.08858392,0.0001321,53.2156,248.2293,93.0014,305.3428,-0.0025064,-0.00039976,0.0,0 STARLINK-4488,1 53534U 22101H   23323.91667824 -.00039976  00000-0 -25064-2 0  9997,2 53534  53.2156 248.2293 0001321  93.0014 305.3428 15.08858392 69243,6917.824,95.436,540.603,538.775,0.0
53534.0,STARLINK-4488,PAYLOAD,2023-11-20 14:00:01,15.08817909,0.0001325,53.2152,245.2358,100.131,321.4079,0.0024613,0.00039077,0.0,0 STARLINK-4488,1 53534U 22101H   23324.58334491  .00039077  00000-0  24613-2 0  9991,2 53534  53.2152 245.2358 0001325 100.1310 321.4079 15.08817909 69342,6917.948,95.439,540.73,538.896,0.0
53534.0,STARLINK-4488,PAYLOAD,2023-11-20 22:00:00,15.08881511,0.000143,53.2152,243.74,101.1263,331.9923,-0.0033044,-0.00052553,0.0,0 STARLINK-4488,1 53534U 22101H   23324.91667824 -.00052553  00000-0 -33044-2 0  9991,2 53534  53.2152 243.7400 0001430 101.1263 331.9923 15.08881511  5836,6917.754,95.435,540.608,538.629,0.0
53534.0,STARLINK-4488,PAYLOAD,2023-11-21 06:00:00,15.08808218,0.0001414,53.2151,242.2446,99.1675,345.5868,0.0011247,0.00017641,0.0,0 STARLINK-4488,1 53534U 22101H   23325.25001157  .00017641  00000-0  11247-2 0  9998,2 53534  53.2151 242.2446 0001414  99.1675 345.5868 15.08808218 69443,6917.978,95.44,540.821,538.864,0.0
53534.0,STARLINK-4488,PAYLOAD,2023-11-21 14:00:01,15.08797191,0.0001479,53.2153,240.7463,110.7578,345.5664,0.0030301,0.00048209,0.0,0 STARLINK-4488,1 53534U 22101H   23325.58334491  .00048209  00000-0  30301-2 0  9990,2 53534  53.2153 240.7463 0001479 110.7578 345.5664 15.08797191  5788,6918.011,95.44,540.899,538.853,0.0
53534.0,STARLINK-4488,PAYLOAD,2023-11-22 00:00:00,15.08880505,0.0001517,53.2154,238.877,102.0314,98.7628,-0.0058756,-0.00092699,0.0,0 STARLINK-4488,1 53534U 22101H   23326.00001157 -.00092699  00000-0 -58756-2 0  9996,2 53534  53.2154 238.8770 0001517 102.0314  98.7628 15.08880505  5849,6917.757,95.435,540.671,538.572,0.0
53534.0,STARLINK-4488,PAYLOAD,2023-11-22 14:00:01,15.08811953,0.0001427,53.2158,236.2568,102.2711,28.8228,0.0043995,0.00070376,0.0,0 STARLINK-4488,1 53534U 22101H   23326.58334491  .00070376  00000-0  43995-2 0  9994,2 53534  53.2158 236.2568 0001427 102.2711  28.8228 15.08811953 69642,6917.966,95.439,540.818,538.844,0.0
53534.0,STARLINK-4488,PAYLOAD,2023-11-23 00:00:00,15.0893307,0.0001473,53.2159,234.3876,89.0924,146.5021,-0.01143,-0.00178184,0.0,0 STARLINK-4488,1 53534U 22101H   23327.00001157 -.00178184  00000-0 -11430-1 0  9998,2 53534  53.2159 234.3876 0001473  89.0924 146.5021 15.08933070  5748,6917.596,95.432,540.48,538.442,0.0
53534.0,STARLINK-4488,PAYLOAD,2023-11-23 00:33:00,15.08853322,0.0001677,53.2165,234.2854,87.2852,272.8332,0.00016635,2.361e-05,0.0,0 STARLINK-4488,1 53534U 22101H   23327.02292018  .00002361  00000-0  16635-3 0  9993,2 53534  53.2165 234.2854 0001677  87.2852 272.8332 15.08853322 69712,6917.84,95.437,540.865,538.545,0.0
53534.0,STARLINK-4488,PAYLOAD,2023-11-23 21:13:02,15.08833408,0.0001693,53.2177,230.4109,103.6504,256.4677,-8.8028e-06,-4.28e-06,0.0,0 STARLINK-4488,1 53534U 22101H   23327.88405114 -.00000428  00000-0 -88028-5 0  9991,2 53534  53.2177 230.4109 0001693 103.6504 256.4677 15.08833408 69848,6917.901,95.438,540.937,538.594,0.0
53534.0,STARLINK-4488,PAYLOAD,2023-11-24 03:34:34,15.08831701,0.0001649,53.217,229.2267,110.6747,249.4422,-1.6665e-05,-5.53e-06,0.0,0 STARLINK-4488,1 53534U 22101H   23328.14901345 -.00000553  00000-0 -16665-4 0  9994,2 53534  53.2170 229.2267 0001649 110.6747 249.4422 15.08831701 69888,6917.906,95.438,540.912,538.63,0.0
53534.0,STARLINK-4488,PAYLOAD,2023-11-24 22:39:12,15.08843349,0.0001475,53.2164,225.66,90.3867,269.7294,7.5079e-05,9.07e-06,0.0,0 STARLINK-4488,1 53534U 22101H   23328.94389183  .00000907  00000-0  75079-4 0  9997,2 53534  53.2164 225.6600 0001475  90.3867 269.7294 15.08843349 70005,6917.87,95.437,540.756,538.715,0.0
53534.0,STARLINK-4488,PAYLOAD,2023-11-25 03:25:21,15.08848284,0.0001656,53.2174,224.7653,105.9104,254.2071,0.00037992,5.765e-05,0.0,0 STARLINK-4488,1 53534U 22101H   23329.14261063  .00005765  00000-0  37992-3 0  9994,2 53534  53.2174 224.7653 0001656 105.9104 254.2071 15.08848284 70030,6917.855,95.437,540.866,538.574,0.0
53534.0,STARLINK-4488,PAYLOAD,2023-11-25 22:29:58,15.08860805,0.0001731,53.2178,221.1944,98.8645,261.2543,0.00053222,8.197e-05,0.0,0 STARLINK-4488,1 53534U 22101H   23329.93748564  .00008197  00000-0  53222-3 0  9993,2 53534  53.2178 221.1944 0001731  98.8645 261.2543 15.08860805 70150,6917.817,95.436,540.879,538.484,0.0
53534.0,STARLINK-4488,PAYLOAD,2023-11-26 01:40:44,15.0887832,0.0001479,53.2169,220.6024,92.1795,267.9366,0.00093597,0.00014655,0.0,0 STARLINK-4488,1 53534U 22101H   23330.06996066  .00014655  00000-0  93597-3 0  9996,2 53534  53.2169 220.6024 0001479  92.1795 267.9366 15.08878320 70174,6917.763,95.435,540.651,538.605,0.0
53534.0,STARLINK-4488,PAYLOAD,2023-11-26 22:20:46,15.08829463,0.0001598,53.2171,216.7349,92.6652,267.4523,-0.0002494,-4.254e-05,0.0,0 STARLINK-4488,1 53534U 22101H   23330.93109290 -.00004254  00000-0 -24940-3 0  9999,2 53534  53.2171 216.7349 0001598  92.6652 267.4523 15.08829463 70301,6917.913,95.438,540.883,538.672,0.0
53534.0,STARLINK-4488,PAYLOAD,2023-11-27 03:06:55,15.08829993,0.0001667,53.2175,215.8448,101.0206,259.0974,-0.00017738,-3.109e-05,0.0,0 STARLINK-4488,1 53534U 22101H   23331.12981471 -.00003109  00000-0 -17738-3 0  9995,2 53534  53.2175 215.8448 0001667 101.0206 259.0974 15.08829993 70330,6917.911,95.438,540.929,538.623,0.0
53534.0,STARLINK-4488,PAYLOAD,2023-11-27 22:11:33,15.08839748,0.0001533,53.216,212.2785,100.9628,259.1537,8.363e-05,1.043e-05,0.0,0 STARLINK-4488,1 53534U 22101H   23331.92469599  .00001043  00000-0  83630-4 0  9993,2 53534  53.2160 212.2785 0001533 100.9628 259.1537 15.08839748 70455,6917.881,95.438,540.807,538.686,0.0
53534.0,STARLINK-4488,PAYLOAD,2023-11-28 01:22:20,15.08841506,0.0001587,53.2161,211.6837,102.9315,257.1854,0.00035867,5.425e-05,0.0,0 STARLINK-4488,1 53534U 22101H   23332.05717743  .00005425  00000-0  35867-3 0  9991,2 53534  53.2161 211.6837 0001587 102.9315 257.1854 15.08841506 70478,6917.876,95.437,540.839,538.643,0.0
53534.0,STARLINK-4488,PAYLOAD,2023-11-28 20:26:57,15.08842401,0.0001549,53.2154,208.1175,88.2434,271.8736,0.00027572,4.103e-05,0.0,0 STARLINK-4488,1 53534U 22101H   23332.85205993  .00004103  00000-0  27572-3 0  9994,2 53534  53.2154 208.1175 0001549  88.2434 271.8736 15.08842401 70592,6917.873,95.437,540.81,538.666,0.0
